     2.11           N: GPS NAV DATA                         RINEX VERSION / TYPE
teqc  2019Feb25                         20221121 12:25:10UTCPGM / RUN BY / DATE
OSX ker:10.11.6|Core i5|gcc 4.3 -m64|OSX ker:10.10+|=+      COMMENT
    4.6566D-09  1.4901D-08 -5.9605D-08 -1.1921D-07          ION ALPHA
    7.9872D+04  8.1920D+04 -6.5536D+04 -4.5875D+05          ION BETA
    7.450580596924D-09 1.953992523340D-14   405504     1540 DELTA-UTC: A0,A1,T,W
                                                            END OF HEADER
 7 09  7 15  0  0  0.0 1.523178070784D-05-6.821210263297D-13 0.000000000000D+00
    6.200000000000D+01-1.109375000000D+01 4.271606500985D-09 2.825425733294D-01
   -4.805624485016D-07 2.837391570210D-03 7.666647434235D-06 5.153664628983D+03
    2.592000000000D+05 3.911554813385D-08 1.868739860905D+00-4.284083843231D-08
    9.678360906237D-01 2.357187500000D+02 2.878346003373D+00-8.008905031613D-09
    4.025167664390D-10 1.000000000000D+00 1.540000000000D+03 0.000000000000D+00
    2.000000000000D+00 0.000000000000D+00-1.071020960808D-08 6.200000000000D+01
    2.520180000000D+05 4.000000000000D+00
16 09  7 15  0  0  0.0 3.275088965893D-05-3.637978807092D-12 0.000000000000D+00
    3.000000000000D+01-2.775000000000D+01 4.725553981148D-09-2.162122926378D+00
   -1.465901732445D-06 5.348034668714D-03 6.578862667084D-06 5.153577388763D+03
    2.592000000000D+05-1.527369022369D-07 2.938163414323D+00-6.146728992462D-08
    9.691734069454D-01 2.618437500000D+02-3.154639545114D-01-8.082122367123D-09
    1.785788670980D-10 1.000000000000D+00 1.540000000000D+03 0.000000000000D+00
    2.000000000000D+00 0.000000000000D+00-9.778887033463D-09 3.000000000000D+01
    2.520180000000D+05 4.000000000000D+00
19 09  7 15  0  0  0.0 1.903716474771D-05-1.364242052659D-12 0.000000000000D+00
    4.800000000000D+01-2.515625000000D+01 4.778056168075D-09 2.385234558068D+00
   -1.050531864166D-06 5.740238819271D-03 9.855255484581D-06 5.153631036758D+03
    2.592000000000D+05-7.450580596924D-09-2.247026866168D+00 1.508742570877D-07
    9.574160045624D-01 1.879062500000D+02-3.245877225301D-01-8.034263230741D-09
   -2.789401904071D-10 1.000000000000D+00 1.540000000000D+03 0.000000000000D+00
    2.000000000000D+00 0.000000000000D+00-1.443549990654D-08 4.800000000000D+01
    2.520180000000D+05 4.000000000000D+00
 6 09  7 15  0  0  0.0 1.924526877701D-04 1.102762325900D-11 0.000000000000D+00
    6.900000000000D+01-2.721875000000D+01 5.324150343661D-09-2.234050793046D+00
   -1.283362507820D-06 5.966679076664D-03 9.030103683472D-06 5.153700006485D+03
    2.592000000000D+05 2.421438694000D-08-2.367546348277D+00 7.450580596924D-08
    9.338853242094D-01 1.892812500000D+02-1.314371076328D+00-8.235700192828D-09
   -2.196520065306D-10 1.000000000000D+00 1.540000000000D+03 0.000000000000D+00
    2.000000000000D+00 0.000000000000D+00-4.656612873077D-09 6.900000000000D+01
    2.520180000000D+05 4.000000000000D+00
 8 09  7 15  0  0  0.0-2.119275741279D-04-1.818989403546D-12 0.000000000000D+00
    1.100000000000D+01-6.937500000000D+00 3.880161624306D-09-4.431077891494D-01
   -3.986060619354D-07 1.072601601481D-02 7.770955562592D-06 5.153636394501D+03
    2.592000000000D+05 1.508742570877D-07 1.930116038863D+00-1.061707735062D-07
    9.890620839829D-01 2.410937500000D+02 2.997104455419D+00-7.879613931834D-09
    4.246605459591D-10 1.000000000000D+00 1.540000000000D+03 0.000000000000D+00
    2.000000000000D+00 0.000000000000D+00-3.725290298462D-09 1.100000000000D+01
    2.520180000000D+05 4.000000000000D+00
25 09  7 15  0  0  0.0 5.085510201752D-04 1.728039933369D-11 0.000000000000D+00
    7.400000000000D+01-8.812500000000D+00 4.179816963297D-09-1.547763228768D+00
   -2.104789018631D-07 1.127893605735D-02 8.277595043182D-06 5.153650861740D+03
    2.592000000000D+05-1.881271600723D-07 1.774299067455D+00 1.844018697739D-07
    9.700256327983D-01 2.291875000000D+02-1.208745538315D+00-7.973546415928D-09
    3.885876148053D-10 1.000000000000D+00 1.540000000000D+03 0.000000000000D+00
    2.800000000000D+00 0.000000000000D+00-7.450580596924D-09 7.400000000000D+01
    2.520180000000D+05 4.000000000000D+00
21 09  7 15  0  0  0.0 2.721324563026D-06-2.160049916711D-12 0.000000000000D+00
    4.800000000000D+01 7.640625000000D+01 5.192359139743D-09-6.840884165827D-01
    3.861263394356D-06 1.549249887466D-02 8.426606655121D-06 5.153602098465D+03
    2.592000000000D+05 2.663582563400D-07-1.255841867152D+00 2.291053533554D-07
    9.334847845539D-01 2.023125000000D+02-2.580009463636D+00-8.528212377134D-09
   -1.103617398666D-10 1.000000000000D+00 1.540000000000D+03 0.000000000000D+00
    2.000000000000D+00 0.000000000000D+00-1.210719347000D-08 4.800000000000D+01
    2.520180000000D+05 4.000000000000D+00
18 09  7 15  0  0  0.0-3.996631130576D-05 3.183231456205D-12 0.000000000000D+00
    4.600000000000D+01 2.368750000000D+01 4.956277877439D-09-1.965480118730D+00
    1.229345798492D-06 1.068832818419D-02 3.855675458908D-06 5.153607358932D+03
    2.592000000000D+05 1.303851604462D-08-1.976304689937D-01-2.030283212662D-07
    9.418977221408D-01 2.970625000000D+02-2.406897523594D+00-8.317132156224D-09
   -6.643133856047D-11 1.000000000000D+00 1.540000000000D+03 0.000000000000D+00
    2.000000000000D+00 0.000000000000D+00-1.071020960808D-08 4.600000000000D+01
    2.520180000000D+05 4.000000000000D+00
15 09  7 15  0  0  0.0-3.083716146648D-04-2.501110429876D-12 0.000000000000D+00
    4.100000000000D+01-3.625000000000D+01 4.450185368083D-09 2.662378953444D+00
   -1.948326826096D-06 1.484825275838D-03 7.154420018196D-06 5.153637807846D+03
    2.592000000000D+05 1.676380634308D-08 8.059458733263D-01 1.862645149231D-08
    9.562459553680D-01 2.375000000000D+02-4.853095437305D-01-8.125338452961D-09
   -1.307197307158D-10 1.000000000000D+00 1.540000000000D+03 0.000000000000D+00
    2.000000000000D+00 0.000000000000D+00-9.778887033463D-09 4.100000000000D+01
    2.520180000000D+05 4.000000000000D+00
22 09  7 15  0  0  0.0 1.954631879926D-04-7.958078640513D-13 0.000000000000D+00
    1.400000000000D+01 2.653125000000D+01 5.010208695303D-09-2.990125525725D+00
    1.389533281326D-06 5.174944293685D-03 4.073604941368D-06 5.153656621933D+03
    2.592000000000D+05-5.029141902924D-08-1.920469671156D-01-1.862645149231D-09
    9.395650495242D-01 2.901875000000D+02-1.898099007305D+00-8.380349075177D-09
   -1.146476326769D-10 1.000000000000D+00 1.540000000000D+03 0.000000000000D+00
    2.000000000000D+00 0.000000000000D+00-1.769512891769D-08 1.400000000000D+01
    2.533320000000D+05 4.000000000000D+00
28 09  7 15  0  0  0.0-2.592941746116D-05-1.136868377216D-13 0.000000000000D+00
    8.600000000000D+01-3.059375000000D+01 4.693052627337D-09-2.751354061123D+00
   -1.715496182442D-06 1.494807505514D-02 5.904585123062D-06 5.153647121429D+03
    2.592000000000D+05 3.315508365631D-07 2.946284742597D+00-1.247972249985D-07
    9.673775565068D-01 2.664375000000D+02-2.021558116501D+00-7.972117784991D-09
    1.975082270104D-10 1.000000000000D+00 1.540000000000D+03 0.000000000000D+00
    2.800000000000D+00 0.000000000000D+00-1.071020960808D-08 8.600000000000D+01
    2.533320000000D+05 4.000000000000D+00
11 09  7 15  0  0  0.0-1.062685623765D-05-1.591615728103D-12 0.000000000000D+00
    3.900000000000D+01 4.121875000000D+01 6.342764201588D-09 9.682734680194D-02
    2.304092049599D-06 9.491456439719D-03 8.556991815567D-06 5.153690313339D+03
    2.592000000000D+05 1.117587089539D-08-1.489622207830D+00 1.173466444016D-07
    8.889193800659D-01 1.712187500000D+02 7.051600589183D-01-9.007875214159D-09
   -1.807218135032D-10 1.000000000000D+00 1.540000000000D+03 0.000000000000D+00
    2.000000000000D+00 0.000000000000D+00-1.164153218269D-08 3.900000000000D+01
    2.548620000000D+05 4.000000000000D+00
26 09  7 15  0  0  0.0 6.468966603279D-05 1.136868377216D-13 0.000000000000D+00
    7.800000000000D+01-3.775000000000D+01 3.593721121481D-09 1.000861518928D-01
   -1.838430762291D-06 2.029588771984D-02 8.346512913704D-06 5.154908924103D+03
    2.592000000000D+05-1.788139343262D-07 8.772680143741D-01 3.539025783539D-07
    9.925953047101D-01 2.386875000000D+02 1.024171535644D+00-7.989261356232D-09
   -9.964700784071D-11 1.000000000000D+00 1.540000000000D+03 0.000000000000D+00
    2.000000000000D+00 0.000000000000D+00-6.519258022308D-09 7.800000000000D+01
    2.581620000000D+05 4.000000000000D+00
27 09  7 15  0  0  0.0 6.566941738129D-05 3.183231456205D-12 0.000000000000D+00
    1.170000000000D+02-2.656250000000D+00 4.016953036503D-09 2.656659540625D+00
   -3.352761268616D-07 2.128199755680D-02 8.441507816315D-06 5.153770538330D+03
    2.592000000000D+05 2.458691596985D-07 1.810857090358D+00-9.313225746155D-08
    9.747711313131D-01 2.217812500000D+02-1.572544320794D+00-7.508169888270D-09
    3.203704875739D-10 1.000000000000D+00 1.540000000000D+03 0.000000000000D+00
    2.000000000000D+00 0.000000000000D+00-4.190951585770D-09 1.170000000000D+02
    2.589120000000D+05 4.000000000000D+00
